{name: 'COSMOS 2251 DEB',         
TLE : `1 36548U 93036BDJ 21268.36766993  .00096922  00000-0  33379-2 0  9990
2 36548  73.9920  23.5049 0004590  87.8856 272.2871 15.29563961657465`},
{name: 'COSMOS 2251 DEB',         
TLE : `1 36550U 93036BDL 21270.14731679  .00000494  00000-0  23172-3 0  9995
2 36550  74.0462  76.0216 0086232 137.4720 223.3148 14.20709405627203`},
{name: 'COSMOS 2251 DEB',         
TLE : `1 36551U 93036BDM 21270.40489604  .00001379  00000-0  25031-3 0  9992
2 36551  73.9011 172.6416 0095590 101.2885 259.9042 14.64323568442422`},
{name: 'COSMOS 2251 DEB',         
TLE : `1 36553U 93036BDP 21270.40809657  .00002184  00000-0  30440-3 0  9993
2 36553  74.0449 141.5294 0050545 278.8709 257.1595 14.77542744450512`},
{name: 'COSMOS 2251 DEB',         
TLE : `1 36554U 93036BDQ 21269.71951577  .00013814  00000-0  11224-2 0  9995
2 36554  74.0009  34.3689 0029364 162.3074 197.9143 14.99284596439462`},
{name: 'COSMOS 2251 DEB',         
TLE : `1 36557U 93036BDT 21270.03206591  .00001454  00000-0  43956-3 0  9999
2 36557  73.9865 163.3763 0040853 310.0576  49.7000 14.42826227115428`},
{name: 'COSMOS 2251 DEB',         
TLE : `1 36558U 93036BDU 21270.38412017  .00000537  00000-0  16797-3 0  9994
2 36558  74.0478 148.7037 0017551 254.9019 105.0196 14.42988413630227`},
{name: 'COSMOS 2251 DEB',         
TLE : `1 36559U 93036BDV 21270.38918750  .00001560  00000-0  11415-2 0  9998
2 36559  74.1320  61.2636 0329862 113.2038 250.4184 13.73701405598545`},
{name: 'COSMOS 2251 DEB',         
TLE : `1 36614U 93036BEC 21269.47311025  .00000955  00000-0  30056-3 0  9990
2 36614  74.0321 176.6980 0025279 259.7496 100.0809 14.41608232639910`},
{name: 'COSMOS 2251 DEB',         
TLE : `1 36615U 93036BED 21269.43018934  .00005618  00000-0  15374-2 0  9996
2 36615  74.0624  47.4343 0116118  83.6601 277.7765 14.43465460608993`},
{name: 'COSMOS 2251 DEB',         
TLE : `1 36617U 93036BEF 21269.51108348  .00018014  00000-0  13085-2 0  9997
2 36617  73.9692 195.2065 0068699 174.4025 185.7948 15.01922383652739`},
{name: 'COSMOS 2251 DEB',         
TLE : `1 36622U 93036BEL 21270.27624719  .00000815  00000-0  16149-3 0  9998
2 36622  74.0208 235.8286 0086140  35.0244 325.6545 14.61679873442049`},
{name: 'COSMOS 2251 DEB',         
TLE : `1 36625U 93036BEP 21268.88557344  .00001223  00000-0  20523-3 0  9999
2 36625  73.8818 121.9647 0059150  94.7692 278.8668 14.69776352454576`},
{name: 'COSMOS 2251 DEB',         
TLE : `1 36626U 93036BEQ 21269.40422109  .00001440  00000-0  95275-4 0  9997
2 36626  74.0400 150.2661 0149386 231.1125 127.6661 14.99829368450071`},
{name: 'COSMOS 2251 DEB',         
TLE : `1 36630U 93036BEU 21266.15282390  .00001351  00000-0  42618-3 0  9990
2 36630  73.9831 208.9238 0044273 331.7442  28.1311 14.40709221365816`},
{name: 'COSMOS 2251 DEB',         
TLE : `1 36632U 93036BEW 21269.63985958  .00000576  00000-0  21457-3 0  9994
2 36632  74.0037 248.1734 0039602 356.8983   3.1917 14.33801387431157`},
{name: 'COSMOS 2251 DEB',         
TLE : `1 37084U 93036BFE 21269.58474144  .00000785  00000-0  91594-4 0  9992
2 37084  74.0362 350.9050 0137709 116.8050 244.7288 14.80504969433906`},
{name: 'COSMOS 2251 DEB',         
TLE : `1 37085U 93036BFF 21268.83487274  .00001173  00000-0  16863-3 0  9995
2 37085  73.9798  76.1231 0090989 283.0384  76.0643 14.74947198441910`},
{name: 'COSMOS 2251 DEB',         
TLE : `1 37086U 93036BFG 21270.37942829  .00001842  00000-0  35858-3 0  9998
2 37086  74.0011 302.9752 0050086  94.1140 266.5754 14.63036771462921`},
{name: 'COSMOS 2251 DEB',         
TLE : `1 37087U 93036BFH 21269.23116574  .00006934  00000-0  14170-2 0  9992
2 37087  74.0200 227.3552 0195492 348.7283  10.9525 14.49639948433426`},
{name: 'COSMOS 2251 DEB',         
TLE : `1 37088U 93036BFJ 21269.32126512  .00002496  00000-0  45500-3 0  9997
2 37088  74.0180 286.0505 0020270  81.0105 279.3357 14.66465274607295`},
{name: 'COSMOS 2251 DEB',         
TLE : `1 37089U 93036BFK 21270.17002204  .00001389  00000-0  49602-3 0  9991
2 37089  74.0453  82.7995 0201924 199.2027 160.1435 14.24322924440607`},
{name: 'COSMOS 2251 DEB',         
TLE : `1 37092U 93036BFN 21268.78690607  .00008219  00000-0  11318-2 0  9990
2 37092  74.0174 287.2732 0018202 321.2411  38.7457 14.78273817425311`},
{name: 'COSMOS 2251 DEB',         
TLE : `1 37093U 93036BFP 21270.31991623  .00001652  00000-0  26800-3 0  9992
2 37093  74.0185 287.9167 0158778 203.9325 155.4409 14.64023245485870`},
{name: 'COSMOS 2251 DEB',         
TLE : `1 37094U 93036BFQ 21269.67282593  .00000561  00000-0  22535-3 0  9998
2 37094  74.1153  32.5920 0097723  42.1119 318.7485 14.27779303624947`},
{name: 'COSMOS 2251 DEB',         
TLE : `1 37095U 93036BFR 21269.62536151  .00000391  00000-0  25912-3 0  9999
2 37095  73.8522 353.6098 0219588 331.4782  27.4470 13.93876879411469`},
{name: 'COSMOS 2251 DEB',         
TLE : `1 37101U 93036BFX 21270.30311326  .00000733  00000-0  20754-3 0  9998
2 37101  74.0394 114.9160 0063103 225.4599 134.1396 14.46233919433416`},
{name: 'COSMOS 2251 DEB',         
TLE : `1 37103U 93036BFZ 21268.26822509  .00013863  00000-0  10570-2 0  9994
2 37103  73.7760 232.8639 0046280  27.7907 332.5736 15.01198499469859`},
{name: 'COSMOS 2251 DEB',         
TLE : `1 37105U 93036BGB 21264.35250301  .00001670  00000-0  77680-3 0  9996
2 37105  73.8899 149.6503 0384255  35.2296 327.3588 13.88742299622193`},
{name: 'COSMOS 2251 DEB',         
TLE : `1 37108U 93036BGE 21269.96447962  .00000693  00000-0  27212-3 0  9992
2 37108  74.0514   7.5311 0114384 100.4457 260.9606 14.27553216634830`},
{name: 'COSMOS 2251 DEB',         
TLE : `1 37110U 93036BGG 21269.65683330  .00003223  00000-0  43340-3 0  9994
2 37110  73.8008  22.2156 0054899  78.3591 282.3737 14.78674435517055`},
{name: 'COSMOS 2251 DEB',         
TLE : `1 37111U 93036BGH 21268.47521016  .00059639  00000-0  18400-2 0  9996
2 37111  74.0025 195.3110 0025893 279.6195  80.2083 15.32958746365835`},
{name: 'COSMOS 2251 DEB',         
TLE : `1 37114U 93036BGL 21248.68961975  .00001967  00000-0  47583-3 0  9998
2 37114  73.8186  44.0665 0050240 276.1533  83.3905 14.53051081362551`},
{name: 'COSMOS 2251 DEB',         
TLE : `1 37118U 93036BGQ 21270.34371156  .00001002  00000-0  28525-3 0  9991
2 37118  74.0292 125.0820 0013012 211.8095 148.2278 14.46541327431611`},
{name: 'COSMOS 2251 DEB',         
TLE : `1 37120U 93036BGS 21269.58480049  .00002175  00000-0  66144-3 0  9991
2 37120  74.0141 232.8427 0054072 296.3961  63.1650 14.41858385613800`},
{name: 'COSMOS 2251 DEB',         
TLE : `1 37123U 93036BGV 21263.84356863  .00002229  00000-0  39282-3 0  9996
2 37123  73.9915 303.7399 0004633 126.4383 355.4191 14.68166334614112`},
{name: 'COSMOS 2251 DEB',         
TLE : `1 37124U 93036BGW 21268.12603109  .00003492  00000-0  88499-3 0  9998
2 37124  74.0129 196.4599 0083502 304.7170  54.6144 14.49162720431441`},
{name: 'COSMOS 2251 DEB',         
TLE : `1 37125U 93036BGX 21269.54318858  .00005583  00000-0  83736-3 0  9992
2 37125  74.0224 219.8881 0018297  39.6590 320.5917 14.74717686262878`},
{name: 'COSMOS 2251 DEB',         
TLE : `1 37126U 93036BGY 21270.27130213  .00000227  00000-0  41786-4 0  9992
2 37126  73.9511 106.8796 0136017 343.8174  15.8669 14.66475241441365`},
{name: 'COSMOS 2251 DEB',         
TLE : `1 37127U 93036BGZ 21270.04057056  .00002814  00000-0  76181-3 0  9991
2 37127  74.0102 170.4761 0040404 234.3371 125.4024 14.47718047423018`},
{name: 'COSMOS 2251 DEB',         
TLE : `1 37131U 93036BHD 21269.07411728  .00002766  00000-0  57971-3 0  9999
2 37131  74.0207  33.8885 0016762 105.5690 254.7328 14.60119475630569`},
{name: 'COSMOS 2251 DEB',         
TLE : `1 37132U 93036BHE 21270.38843146  .00000734  00000-0  16706-3 0  9993
2 37132  74.0096 312.9792 0055987 131.1810 229.4203 14.56822431399140`},
{name: 'COSMOS 2251 DEB',         
TLE : `1 37133U 93036BHF 21268.52733239  .00007061  00000-0  40086-2 0  9995
2 37133  74.0192 213.0779 0280876   8.1363 352.4179 13.92095155366762`},
{name: 'COSMOS 2251 DEB',         
TLE : `1 37269U 93036BHH 21270.20805176  .00000596  00000-0  29735-3 0  9998
2 37269  74.1700 238.4309 0127320 176.5642 183.6406 14.14791635438759`},
{name: 'COSMOS 2251 DEB',         
TLE : `1 37270U 93036BHJ 21269.31263500  .00001143  00000-0  10597-2 0  9993
2 37270  73.9408 291.0496 0448492 235.5744 120.2203 13.46018857562875`},
{name: 'COSMOS 2251 DEB',         
TLE : `1 37271U 93036BHK 21269.43807259  .00008226  00000-0  91283-3 0  9993
2 37271  74.0429 168.1085 0009986 287.8143  72.1947 14.87345179443596`},
{name: 'COSMOS 2251 DEB',         
TLE : `1 37273U 93036BHM 21263.04314325  .00001628  00000-0  41613-3 0  9994
2 37273  74.0065 142.8371 0031781 210.7669 149.1630 14.50984937434749`},
{name: 'COSMOS 2251 DEB',         
TLE : `1 37275U 93036BHP 21270.45664275  .00001752  00000-0  81644-3 0  9997
2 37275  73.9510 181.4923 0162151  33.9430 327.1957 14.14508497613509`},
{name: 'COSMOS 2251 DEB',         
TLE : `1 37277U 93036BHR 21269.37117465  .00001496  00000-0  39402-3 0  9992
2 37277  74.0438 141.1190 0032723 199.2683 160.7243 14.49607477364809`},
{name: 'COSMOS 2251 DEB',         
TLE : `1 37278U 93036BHS 21269.56720883  .00000562  00000-0  23433-3 0  9998
2 37278  73.7906 208.2293 0341721 290.4842 247.9477 14.01760782579179`},
{name: 'COSMOS 2251 DEB',         
TLE : `1 37280U 93036BHU 21270.32011342  .00000412  00000-0  22958-3 0  9995
2 37280  74.0168 255.1669 0157575  15.5752 345.0152 14.07870669356188`},
{name: 'COSMOS 2251 DEB',         
TLE : `1 37282U 93036BHW 21270.29340402  .00002893  00000-0  56737-3 0  9992
2 37282  73.8914 277.0996 0076716 357.1515   2.9202 14.61375666647692`},
{name: 'COSMOS 2251 DEB',         
TLE : `1 37284U 93036BHY 21268.44265219  .00000611  00000-0  35821-3 0  9997
2 37284  74.0211 332.0927 0183638 112.6162 262.8864 14.02006259375386`},
{name: 'COSMOS 2251 DEB',         
TLE : `1 37287U 93036BJB 21270.58755227  .00018212  00000-0  34156-3 0  9997
2 37287  74.0350 203.3476 0059346 261.6301 270.9036 15.46612197650436`},


